start=new Date('2021-11-20T00:00:00.000Z').valueOf();
sats=[{"ECCENTRICITY":"0.00044220","MEAN_MOTION":"15.71463567","MEAN_ELEMENT_THEORY":"SGP4","REF_FRAME":"TEME","OBJECT_TYPE":"PAYLOAD","EPOCH":"2021-11-19T03:35:47.206752","MEAN_MOTION_DDOT":"0.0000000000000","PERIOD":"91.634","GP_ID":"190072166","TLE_LINE2":"2 45539  53.0549 225.2572 0004422  17.1256 342.9910 15.71463567 89553","PERIAPSIS":"351.738","RCS_SIZE":"LARGE","DECAY_DATE":null,"ARG_OF_PERICENTER":"17.1256","OBJECT_ID":"2020-025J","FILE":"3219209","REV_AT_EPOCH":"8955","BSTAR":"0.00016660000000","EPHEMERIS_TYPE":"0","MEAN_ANOMALY":"342.9910","LAUNCH_DATE":"2020-04-22","COUNTRY_CODE":"US","CENTER_NAME":"EARTH","TLE_LINE1":"1 45539U 20025J   21323.14985193  .00021178  00000-0  16660-3 0  9997","SITE":"AFETR","INCLINATION":"53.0549","SEMIMAJOR_AXIS":"6732.850","NORAD_CAT_ID":"45539","TIME_SYSTEM":"UTC","ELEMENT_SET_NO":"999","CLASSIFICATION_TYPE":"U","APOAPSIS":"357.693","OBJECT_NAME":"STARLINK-1367","MEAN_MOTION_DOT":"0.00021178","RA_OF_ASC_NODE":"225.2572"},{"CENTER_NAME":"EARTH","INCLINATION":"53.0536","TLE_LINE1":"1 45540U 20025K   21323.37797736  .00000030  00000-0  20925-4 0  9992","SITE":"AFETR","FILE":"3219209","REV_AT_EPOCH":"8825","ARG_OF_PERICENTER":"70.3544","OBJECT_ID":"2020-025K","BSTAR":"0.00002092500000","EPHEMERIS_TYPE":"0","COUNTRY_CODE":"US","LAUNCH_DATE":"2020-04-22","MEAN_ANOMALY":"289.7625","OBJECT_NAME":"STARLINK-1368","CLASSIFICATION_TYPE":"U","APOAPSIS":"548.394","MEAN_MOTION_DOT":"0.00000030","RA_OF_ASC_NODE":"320.5194","NORAD_CAT_ID":"45540","SEMIMAJOR_AXIS":"6925.373","TIME_SYSTEM":"UTC","ELEMENT_SET_NO":"999","EPOCH":"2021-11-19T09:04:17.243904","MEAN_MOTION_DDOT":"0.0000000000000","MEAN_MOTION":"15.06392070","REF_FRAME":"TEME","MEAN_ELEMENT_THEORY":"SGP4","OBJECT_TYPE":"PAYLOAD","GP_ID":"190072417","PERIOD":"95.593","ECCENTRICITY":"0.00016700","RCS_SIZE":"LARGE","DECAY_DATE":null,"TLE_LINE2":"2 45540  53.0536 320.5194 0001670  70.3544 289.7625 15.06392070 88258","PERIAPSIS":"546.081"},{"ECCENTRICITY":"0.00017180","EPOCH":"2021-11-19T12:20:40.314336","MEAN_MOTION_DDOT":"0.0000000000000","MEAN_MOTION":"15.06394586","MEAN_ELEMENT_THEORY":"SGP4","REF_FRAME":"TEME","OBJECT_TYPE":"PAYLOAD","GP_ID":"190073169","PERIOD":"95.592","PERIAPSIS":"546.040","TLE_LINE2":"2 45541  53.0544 319.9017 0001718  69.8585 290.2589 15.06394586 88277","RCS_SIZE":"LARGE","DECAY_DATE":null,"FILE":"3219209","REV_AT_EPOCH":"8827","ARG_OF_PERICENTER":"69.8585","OBJECT_ID":"2020-025L","BSTAR":"0.00001705300000","EPHEMERIS_TYPE":"0","LAUNCH_DATE":"2020-04-22","COUNTRY_CODE":"US","MEAN_ANOMALY":"290.2589","CENTER_NAME":"EARTH","INCLINATION":"53.0544","TLE_LINE1":"1 45541U 20025L   21323.51435549 -.00000028  00000-0  17053-4 0  9996","SITE":"AFETR","SEMIMAJOR_AXIS":"6925.365","NORAD_CAT_ID":"45541","TIME_SYSTEM":"UTC","ELEMENT_SET_NO":"999","OBJECT_NAME":"STARLINK-1369","CLASSIFICATION_TYPE":"U","APOAPSIS":"548.420","MEAN_MOTION_DOT":"-0.00000028","RA_OF_ASC_NODE":"319.9017"},{"OBJECT_TYPE":"PAYLOAD","MEAN_MOTION":"15.06395639","MEAN_ELEMENT_THEORY":"SGP4","REF_FRAME":"TEME","MEAN_MOTION_DDOT":"0.0000000000000","EPOCH":"2021-11-19T09:57:21.547008","PERIOD":"95.592","GP_ID":"190073919","ECCENTRICITY":"0.00015320","RCS_SIZE":"LARGE","DECAY_DATE":null,"PERIAPSIS":"546.166","TLE_LINE2":"2 45542  53.0553 320.3496 0001532  70.5468 289.5686 15.06395639 88266","CENTER_NAME":"EARTH","SITE":"AFETR","TLE_LINE1":"1 45542U 20025M   21323.41483272 -.00000258  00000-0  15927-5 0  9996","INCLINATION":"53.0553","OBJECT_ID":"2020-025M","ARG_OF_PERICENTER":"70.5468","REV_AT_EPOCH":"8826","FILE":"3219209","LAUNCH_DATE":"2020-04-22","COUNTRY_CODE":"US","MEAN_ANOMALY":"289.5686","EPHEMERIS_TYPE":"0","BSTAR":"0.00000159270000","CLASSIFICATION_TYPE":"U","APOAPSIS":"548.288","OBJECT_NAME":"STARLINK-1371","RA_OF_ASC_NODE":"320.3496","MEAN_MOTION_DOT":"-0.00000258","SEMIMAJOR_AXIS":"6925.362","NORAD_CAT_ID":"45542","ELEMENT_SET_NO":"999","TIME_SYSTEM":"UTC"},{"RA_OF_ASC_NODE":"319.8788","MEAN_MOTION_DOT":"-0.00000493","OBJECT_NAME":"STARLINK-1372","CLASSIFICATION_TYPE":"U","APOAPSIS":"548.275","ELEMENT_SET_NO":"999","TIME_SYSTEM":"UTC","SEMIMAJOR_AXIS":"6925.360","NORAD_CAT_ID":"45543","INCLINATION":"53.0539","SITE":"AFETR","TLE_LINE1":"1 45543U 20025N   21323.51803793 -.00000493  00000-0 -14180-4 0  9993","CENTER_NAME":"EARTH","LAUNCH_DATE":"2020-04-22","MEAN_ANOMALY":"299.6991","COUNTRY_CODE":"US","BSTAR":"-0.00001418000000","EPHEMERIS_TYPE":"0","REV_AT_EPOCH":"8737","FILE":"3219209","OBJECT_ID":"2020-025N","ARG_OF_PERICENTER":"60.4148","DECAY_DATE":null,"RCS_SIZE":"LARGE","TLE_LINE2":"2 45543  53.0539 319.8788 0001515  60.4148 299.6991 15.06396157 87370","PERIAPSIS":"546.176","GP_ID":"190072666","PERIOD":"95.592","MEAN_MOTION_DDOT":"0.0000000000000","EPOCH":"2021-11-19T12:25:58.477152","OBJECT_TYPE":"PAYLOAD","MEAN_MOTION":"15.06396157","MEAN_ELEMENT_THEORY":"SGP4","REF_FRAME":"TEME","ECCENTRICITY":"0.00015150"},{"TLE_LINE1":"1 45544U 20025P   21323.47011960  .00000695  00000-0  65558-4 0  9993","SITE":"AFETR","INCLINATION":"53.0539","CENTER_NAME":"EARTH","BSTAR":"0.00006555800000","EPHEMERIS_TYPE":"0","LAUNCH_DATE":"2020-04-22","COUNTRY_CODE":"US","MEAN_ANOMALY":"288.1918","ARG_OF_PERICENTER":"71.9257","OBJECT_ID":"2020-025P","FILE":"3219209","REV_AT_EPOCH":"8827","MEAN_MOTION_DOT":"0.00000695","RA_OF_ASC_NODE":"320.1064","APOAPSIS":"548.408","CLASSIFICATION_TYPE":"U","OBJECT_NAME":"STARLINK-1373","TIME_SYSTEM":"UTC","ELEMENT_SET_NO":"999","SEMIMAJOR_AXIS":"6925.359","NORAD_CAT_ID":"45544","PERIOD":"95.592","GP_ID":"190072917","MEAN_MOTION":"15.06396509","MEAN_ELEMENT_THEORY":"SGP4","REF_FRAME":"TEME","OBJECT_TYPE":"PAYLOAD","EPOCH":"2021-11-19T11:16:58.333440","MEAN_MOTION_DDOT":"0.0000000000000","ECCENTRICITY":"0.00017100","DECAY_DATE":null,"RCS_SIZE":"LARGE","TLE_LINE2":"2 45544  53.0539 320.1064 0001710  71.9257 288.1918 15.06396509 88271","PERIAPSIS":"546.040"},{"OBJECT_NAME":"STARLINK-1374","CLASSIFICATION_TYPE":"U","APOAPSIS":"548.460","MEAN_MOTION_DOT":"-0.00000056","RA_OF_ASC_NODE":"320.6225","SEMIMAJOR_AXIS":"6925.336","NORAD_CAT_ID":"45545","TIME_SYSTEM":"UTC","ELEMENT_SET_NO":"999","CENTER_NAME":"EARTH","INCLINATION":"53.0540","TLE_LINE1":"1 45545U 20025Q   21323.35585720 -.00000056  00000-0  15168-4 0  9995","SITE":"AFETR","FILE":"3219209","REV_AT_EPOCH":"8823","ARG_OF_PERICENTER":"55.3543","OBJECT_ID":"2020-025Q","EPHEMERIS_TYPE":"0","BSTAR":"0.00001516800000","COUNTRY_CODE":"US","LAUNCH_DATE":"2020-04-22","MEAN_ANOMALY":"304.7617","RCS_SIZE":"LARGE","DECAY_DATE":null,"TLE_LINE2":"2 45545  53.0540 320.6225 0001818  55.3543 304.7617 15.06404238 88237","PERIAPSIS":"545.942","EPOCH":"2021-11-19T08:32:26.062080","MEAN_MOTION_DDOT":"0.0000000000000","MEAN_ELEMENT_THEORY":"SGP4","MEAN_MOTION":"15.06404238","REF_FRAME":"TEME","OBJECT_TYPE":"PAYLOAD","GP_ID":"190073669","PERIOD":"95.592","ECCENTRICITY":"0.00018180"},{"PERIAPSIS":"545.978","TLE_LINE2":"2 45546  53.0542 320.2635 0001761  60.9044 299.2121 15.06405224 88263","DECAY_DATE":null,"RCS_SIZE":"LARGE","ECCENTRICITY":"0.00017610","PERIOD":"95.592","GP_ID":"190073420","OBJECT_TYPE":"PAYLOAD","MEAN_MOTION":"15.06405224","REF_FRAME":"TEME","MEAN_ELEMENT_THEORY":"SGP4","MEAN_MOTION_DDOT":"0.0000000000000","EPOCH":"2021-11-19T10:23:53.507616","ELEMENT_SET_NO":"999","TIME_SYSTEM":"UTC","SEMIMAJOR_AXIS":"6925.333","NORAD_CAT_ID":"45546","RA_OF_ASC_NODE":"320.2635","MEAN_MOTION_DOT":"-0.00000422","CLASSIFICATION_TYPE":"U","APOAPSIS":"548.417","OBJECT_NAME":"STARLINK-1375","LAUNCH_DATE":"2020-04-22","COUNTRY_CODE":"US","MEAN_ANOMALY":"299.2121","BSTAR":"-0.00000942060000","EPHEMERIS_TYPE":"0","OBJECT_ID":"2020-025R","ARG_OF_PERICENTER":"60.9044","REV_AT_EPOCH":"8826","FILE":"3219209","SITE":"AFETR","TLE_LINE1":"1 45546U 20025R   21323.43325819 -.00000422  00000-0 -94206-5 0  9995","INCLINATION":"53.0542","CENTER_NAME":"EARTH"},{"CENTER_NAME":"EARTH","INCLINATION":"53.0540","SITE":"AFETR","TLE_LINE1":"1 45547U 20025S   21323.49592730  .00000543  00000-0  55379-4 0  9999","REV_AT_EPOCH":"8828","FILE":"3219209","OBJECT_ID":"2020-025S","ARG_OF_PERICENTER":"57.2201","MEAN_ANOMALY":"302.8943","LAUNCH_DATE":"2020-04-22","COUNTRY_CODE":"US","BSTAR":"0.00005537900000","EPHEMERIS_TYPE":"0","OBJECT_NAME":"STARLINK-1377","APOAPSIS":"548.350","CLASSIFICATION_TYPE":"U","RA_OF_ASC_NODE":"319.9797","MEAN_MOTION_DOT":"0.00000543","SEMIMAJOR_AXIS":"6925.365","NORAD_CAT_ID":"45547","ELEMENT_SET_NO":"999","TIME_SYSTEM":"UTC","MEAN_MOTION_DDOT":"0.0000000000000","EPOCH":"2021-11-19T11:54:08.118720","OBJECT_TYPE":"PAYLOAD","REF_FRAME":"TEME","MEAN_MOTION":"15.06394592","MEAN_ELEMENT_THEORY":"SGP4","GP_ID":"190072167","PERIOD":"95.592","ECCENTRICITY":"0.00016170","RCS_SIZE":"LARGE","DECAY_DATE":null,"TLE_LINE2":"2 45547  53.0540 319.9797 0001617  57.2201 302.8943 15.06394592 88280","PERIAPSIS":"546.110"},{"RCS_SIZE":"LARGE","DECAY_DATE":null,"TLE_LINE2":"2 45548  53.0554 320.4681 0001571  72.9717 287.1444 15.06399939 88258","PERIAPSIS":"546.126","EPOCH":"2021-11-19T09:20:11.753088","MEAN_MOTION_DDOT":"0.0000000000000","MEAN_ELEMENT_THEORY":"SGP4","MEAN_MOTION":"15.06399939","REF_FRAME":"TEME","OBJECT_TYPE":"PAYLOAD","GP_ID":"190072418","PERIOD":"95.592","ECCENTRICITY":"0.00015710","OBJECT_NAME":"STARLINK-1378","CLASSIFICATION_TYPE":"U","APOAPSIS":"548.302","MEAN_MOTION_DOT":"0.00000099","RA_OF_ASC_NODE":"320.4681","SEMIMAJOR_AXIS":"6925.349","NORAD_CAT_ID":"45548","TIME_SYSTEM":"UTC","ELEMENT_SET_NO":"999","CENTER_NAME":"EARTH","INCLINATION":"53.0554","TLE_LINE1":"1 45548U 20025T   21323.38902492  .00000099  00000-0  25519-4 0  9997","SITE":"AFETR","FILE":"3219209","REV_AT_EPOCH":"8825","ARG_OF_PERICENTER":"72.9717","OBJECT_ID":"2020-025T","EPHEMERIS_TYPE":"0","BSTAR":"0.00002551900000","MEAN_ANOMALY":"287.1444","LAUNCH_DATE":"2020-04-22","COUNTRY_CODE":"US"}];
